CAS500-2 RIDESHARE OBJE*
1 68981U 26100B   26129.83337963 -.00059367  00000+0 -60483-2 0  9997
2 68981  97.7388  27.9936 0003145 279.1916  33.9554 14.91035509  1502
