{
  "norad_id": 68981,
  "name": "CAS500-2 RIDESHARE OBJECT B",
  "history": [
    {
      "epoch": "2026-05-09T20:00:04.000032Z",
      "apogee_km": 596.898375885401,
      "perigee_km": 592.5124580051433,
      "latitude_deg": -46.541902411077416,
      "longitude_deg": -131.4680617636892,
      "height_km": 610.918676281808,
      "semi_major_axis_km": 6972.842416945272,
      "eccentricity": 0.0003145,
      "inclination_deg": 97.7388,
      "raan_deg": 27.9936,
      "arg_perigee_deg": 279.1916,
      "mean_anomaly_deg": 33.9554,
      "mean_motion_rev_day": 14.91035509
    }
  ]
}